[{"OBJECT_NAME":"METEOSAT-9 (MSG-2)","OBJECT_ID":"2005-049B","EPOCH":"2023-04-26T00:28:14.864736","MEAN_MOTION":1.00266273,"ECCENTRICITY":0.0002717,"INCLINATION":6.7298,"RA_OF_ASC_NODE":64.1391,"ARG_OF_PERICENTER":205.6605,"MEAN_ANOMALY":356.8459,"EPHEMERIS_TYPE":0,"CLASSIFICATION_TYPE":"U","NORAD_CAT_ID":28912,"ELEMENT_SET_NO":999,"REV_AT_EPOCH":6353,"BSTAR":0,"MEAN_MOTION_DOT":1.27e-6,"MEAN_MOTION_DDOT":0},{"OBJECT_NAME":"EWS-G1 (GOES 13)","OBJECT_ID":"2006-018A","EPOCH":"2023-04-26T20:24:42.566688","MEAN_MOTION":1.00267552,"ECCENTRICITY":0.0001055,"INCLINATION":1.4027,"RA_OF_ASC_NODE":91.972,"ARG_OF_PERICENTER":131.6304,"MEAN_ANOMALY":358.7318,"EPHEMERIS_TYPE":0,"CLASSIFICATION_TYPE":"U","NORAD_CAT_ID":29155,"ELEMENT_SET_NO":999,"REV_AT_EPOCH":3187,"BSTAR":0,"MEAN_MOTION_DOT":3.6e-7,"MEAN_MOTION_DDOT":0},{"OBJECT_NAME":"DMSP 5D-3 F17 (USA 191)","OBJECT_ID":"2006-050A","EPOCH":"2023-04-27T03:39:27.245088","MEAN_MOTION":14.14238779,"ECCENTRICITY":0.0011208,"INCLINATION":98.7564,"RA_OF_ASC_NODE":131.1691,"ARG_OF_PERICENTER":88.8969,"MEAN_ANOMALY":271.3488,"EPHEMERIS_TYPE":0,"CLASSIFICATION_TYPE":"U","NORAD_CAT_ID":29522,"ELEMENT_SET_NO":999,"REV_AT_EPOCH":85024,"BSTAR":0.000136,"MEAN_MOTION_DOT":2.16e-6,"MEAN_MOTION_DDOT":0},{"OBJECT_NAME":"FENGYUN 3A","OBJECT_ID":"2008-026A","EPOCH":"2023-04-26T10:49:11.521056","MEAN_MOTION":14.18856349,"ECCENTRICITY":0.0008347,"INCLINATION":98.5507,"RA_OF_ASC_NODE":72.062,"ARG_OF_PERICENTER":191.2722,"MEAN_ANOMALY":168.8269,"EPHEMERIS_TYPE":0,"CLASSIFICATION_TYPE":"U","NORAD_CAT_ID":32958,"ELEMENT_SET_NO":999,"REV_AT_EPOCH":77260,"BSTAR":0.00013119,"MEAN_MOTION_DOT":2.31e-6,"MEAN_MOTION_DDOT":0},{"OBJECT_NAME":"FENGYUN 2E","OBJECT_ID":"2008-066A","EPOCH":"2023-04-26T21:50:57.219936","MEAN_MOTION":1.0027555,"ECCENTRICITY":0.0001389,"INCLINATION":6.6056,"RA_OF_ASC_NODE":63.3324,"ARG_OF_PERICENTER":330.3535,"MEAN_ANOMALY":235.4215,"EPHEMERIS_TYPE":0,"CLASSIFICATION_TYPE":"U","NORAD_CAT_ID":33463,"ELEMENT_SET_NO":999,"REV_AT_EPOCH":5258,"BSTAR":0,"MEAN_MOTION_DOT":-2.05e-6,"MEAN_MOTION_DDOT":0},{"OBJECT_NAME":"NOAA 19","OBJECT_ID":"2009-005A","EPOCH":"2023-04-27T02:50:24.540576","MEAN_MOTION":14.12740977,"ECCENTRICITY":0.0014248,"INCLINATION":99.105,"RA_OF_ASC_NODE":162.2174,"ARG_OF_PERICENTER":30.8789,"MEAN_ANOMALY":329.3217,"EPHEMERIS_TYPE":0,"CLASSIFICATION_TYPE":"U","NORAD_CAT_ID":33591,"ELEMENT_SET_NO":999,"REV_AT_EPOCH":73273,"BSTAR":0.000172,"MEAN_MOTION_DOT":2.73e-6,"MEAN_MOTION_DDOT":0},{"OBJECT_NAME":"GOES 14","OBJECT_ID":"2009-033A","EPOCH":"2023-04-27T05:08:05.380224","MEAN_MOTION":1.00269974,"ECCENTRICITY":0.0005782,"INCLINATION":0.2173,"RA_OF_ASC_NODE":110.7748,"ARG_OF_PERICENTER":300.8624,"MEAN_ANOMALY":132.0587,"EPHEMERIS_TYPE":0,"CLASSIFICATION_TYPE":"U","NORAD_CAT_ID":35491,"ELEMENT_SET_NO":999,"REV_AT_EPOCH":5065,"BSTAR":0,"MEAN_MOTION_DOT":-6.9e-7,"MEAN_MOTION_DDOT":0},{"OBJECT_NAME":"DMSP 5D-3 F18 (USA 210)","OBJECT_ID":"2009-057A","EPOCH":"2023-04-27T04:13:29.676288","MEAN_MOTION":14.13739465,"ECCENTRICITY":0.0009897,"INCLINATION":98.7644,"RA_OF_ASC_NODE":94.5162,"ARG_OF_PERICENTER":274.9693,"MEAN_ANOMALY":85.035,"EPHEMERIS_TYPE":0,"CLASSIFICATION_TYPE":"U","NORAD_CAT_ID":35951,"ELEMENT_SET_NO":999,"REV_AT_EPOCH":69743,"BSTAR":0.00023886,"MEAN_MOTION_DOT":4.08e-6,"MEAN_MOTION_DDOT":0},{"OBJECT_NAME":"GOES 15","OBJECT_ID":"2010-008A","EPOCH":"2023-04-26T17:19:12.730368","MEAN_MOTION":1.00138264,"ECCENTRICITY":0.0001501,"INCLINATION":0.2339,"RA_OF_ASC_NODE":95.1941,"ARG_OF_PERICENTER":252.0139,"MEAN_ANOMALY":347.8538,"EPHEMERIS_TYPE":0,"CLASSIFICATION_TYPE":"U","NORAD_CAT_ID":36411,"ELEMENT_SET_NO":999,"REV_AT_EPOCH":4814,"BSTAR":0,"MEAN_MOTION_DOT":1.12e-6,"MEAN_MOTION_DDOT":0},{"OBJECT_NAME":"COMS 1","OBJECT_ID":"2010-032A","EPOCH":"2023-04-26T19:21:47.664288","MEAN_MOTION":1.00271129,"ECCENTRICITY":8.32e-5,"INCLINATION":1.8577,"RA_OF_ASC_NODE":89.465,"ARG_OF_PERICENTER":309.6436,"MEAN_ANOMALY":234.0305,"EPHEMERIS_TYPE":0,"CLASSIFICATION_TYPE":"U","NORAD_CAT_ID":36744,"ELEMENT_SET_NO":999,"REV_AT_EPOCH":3958,"BSTAR":0,"MEAN_MOTION_DOT":-3.46e-6,"MEAN_MOTION_DDOT":0},{"OBJECT_NAME":"FENGYUN 3B","OBJECT_ID":"2010-059A","EPOCH":"2023-04-27T08:23:32.897184","MEAN_MOTION":14.14330506,"ECCENTRICITY":0.0022235,"INCLINATION":99.0872,"RA_OF_ASC_NODE":133.8544,"ARG_OF_PERICENTER":187.07,"MEAN_ANOMALY":300.5843,"EPHEMERIS_TYPE":0,"CLASSIFICATION_TYPE":"U","NORAD_CAT_ID":37214,"ELEMENT_SET_NO":999,"REV_AT_EPOCH":64532,"BSTAR":0.00023849,"MEAN_MOTION_DOT":4.11e-6,"MEAN_MOTION_DDOT":0}]
