METEOSAT-9 (MSG-2)      
1 28912U 05049B   23116.01961649  .00000127  00000+0  00000+0 0  9997
2 28912   6.7298  64.1391 0002717 205.6605 356.8459  1.00266273 63535
EWS-G1 (GOES 13)        
1 29155U 06018A   23116.85049267  .00000036  00000+0  00000+0 0  9998
2 29155   1.4027  91.9720 0001055 131.6304 358.7318  1.00267552 31877
DMSP 5D-3 F17 (USA 191) 
1 29522U 06050A   23117.15239867  .00000216  00000+0  13600-3 0  9997
2 29522  98.7564 131.1691 0011208  88.8969 271.3488 14.14238779850241
FENGYUN 3A              
1 32958U 08026A   23116.45082779  .00000231  00000+0  13119-3 0  9991
2 32958  98.5507  72.0620 0008347 191.2722 168.8269 14.18856349772607
FENGYUN 2E              
1 33463U 08066A   23116.91038449 -.00000205  00000+0  00000+0 0  9996
2 33463   6.6056  63.3324 0001389 330.3535 235.4215  1.00275550 52585
NOAA 19                 
1 33591U 09005A   23117.11833959  .00000273  00000+0  17200-3 0  9992
2 33591  99.1050 162.2174 0014248  30.8789 329.3217 14.12740977732735
GOES 14                 
1 35491U 09033A   23117.21395116 -.00000069  00000+0  00000+0 0  9993
2 35491   0.2173 110.7748 0005782 300.8624 132.0587  1.00269974 50650
DMSP 5D-3 F18 (USA 210) 
1 35951U 09057A   23117.17603792  .00000408  00000+0  23886-3 0  9994
2 35951  98.7644  94.5162 0009897 274.9693  85.0350 14.13739465697436
GOES 15                 
1 36411U 10008A   23116.72167512  .00000112  00000+0  00000+0 0  9990
2 36411   0.2339  95.1941 0001501 252.0139 347.8538  1.00138264 48142
COMS 1                  
1 36744U 10032A   23116.80680167 -.00000346  00000+0  00000+0 0  9991
2 36744   1.8577  89.4650 0000832 309.6436 234.0305  1.00271129 39585
FENGYUN 3B              
1 37214U 10059A   23117.34968631  .00000411  00000+0  23849-3 0  9990
2 37214  99.0872 133.8544 0022235 187.0700 300.5843 14.14330506645329
